[{"OBJECT_NAME":"SAUDISAT 1C (SO-50)","OBJECT_ID":"2002-058C","EPOCH":"2026-03-09T14:49:05.437056","MEAN_MOTION":14.82783142,"ECCENTRICITY":0.0075248,"INCLINATION":64.5524,"RA_OF_ASC_NODE":76.9957,"ARG_OF_PERICENTER":280.7497,"MEAN_ANOMALY":78.5144,"EPHEMERIS_TYPE":0,"CLASSIFICATION_TYPE":"U","NORAD_CAT_ID":27607,"ELEMENT_SET_NO":999,"REV_AT_EPOCH":24969,"BSTAR":0.00027919,"MEAN_MOTION_DOT":2.222e-5,"MEAN_MOTION_DDOT":0},{"OBJECT_NAME":"NOAA 17 DEB","OBJECT_ID":"2002-032BH","EPOCH":"2026-03-08T13:29:57.200640","MEAN_MOTION":14.74112422,"ECCENTRICITY":0.00231821,"INCLINATION":98.7444,"RA_OF_ASC_NODE":103.0976,"ARG_OF_PERICENTER":249.0913,"MEAN_ANOMALY":110.7811,"EPHEMERIS_TYPE":0,"CLASSIFICATION_TYPE":"U","NORAD_CAT_ID":48724,"ELEMENT_SET_NO":999,"REV_AT_EPOCH":26297,"BSTAR":0.0030823368,"MEAN_MOTION_DOT":0.00020397,"MEAN_MOTION_DDOT":0}]
